{"type": "FeatureCollection", "features": [ {"type": "Feature", "properties": {"norad_id": 33153, "name": "INTELSAT 25 (IS-25)", "group": "intelsat", "lat": -1.0458634629938806, "lon": 54.40824553732548, "alt_km": 35802.71162809452, "timestamp": "2025-12-22T23:36:20.367613+00:00", "meta": {"OBJECT_NAME": "INTELSAT 25 (IS-25)", "OBJECT_ID": "2008-034A", "EPOCH": "2025-12-22T11:18:11.320704", "MEAN_MOTION": 1.00272968, "ECCENTRICITY": 0.00048029, "INCLINATION": 2.2512, "RA_OF_ASC_NODE": 82.5459, "ARG_OF_PERICENTER": 186.2085, "MEAN_ANOMALY": 320.5641, "EPHEMERIS_TYPE": 0, "CLASSIFICATION_TYPE": "U", "NORAD_CAT_ID": 33153, "ELEMENT_SET_NO": 999, "REV_AT_EPOCH": 6392, "BSTAR": 0, "MEAN_MOTION_DOT": -2.03e-06, "MEAN_MOTION_DDOT": 0}, "tle": {"line1": "1 33153U 08034A   25356.47096436 -.00000203  00000+0  00000+0 0  9994", "line2": "2 33153   2.2512  82.5459 0004802 186.2085 320.5641  1.00272968 63922"}}, "geometry": {"type": "Point", "coordinates": [54.40824553732548, -1.0458634629938806]}}, {"type": "Feature", "properties": {"norad_id": 33376, "name": "GALAXY 19 (G-19)", "group": "intelsat", "lat": 0.03142089542499802, "lon": -11.116875628155643, "alt_km": 35782.67662092196, "timestamp": "2025-12-22T23:36:20.367625+00:00", "meta": {"OBJECT_NAME": "GALAXY 19 (G-19)", "OBJECT_ID": "2008-045A", "EPOCH": "2025-12-22T10:59:28.112928", "MEAN_MOTION": 1.0027123, "ECCENTRICITY": 0.00025897, "INCLINATION": 0.0477, "RA_OF_ASC_NODE": 266.0918, "ARG_OF_PERICENTER": 11.8302, "MEAN_ANOMALY": 241.2052, "EPHEMERIS_TYPE": 0, "CLASSIFICATION_TYPE": "U", "NORAD_CAT_ID": 33376, "ELEMENT_SET_NO": 999, "REV_AT_EPOCH": 6313, "BSTAR": 0, "MEAN_MOTION_DOT": -1.17e-06, "MEAN_MOTION_DDOT": 0}, "tle": {"line1": "1 33376U 08045A   25356.45796427 -.00000117  00000+0  00000+0 0  9992", "line2": "2 33376   0.0477 266.0918 0002589  11.8302 241.2052  1.00271230 63138"}}, "geometry": {"type": "Point", "coordinates": [-11.116875628155643, 0.03142089542499802]}}, {"type": "Feature", "properties": {"norad_id": 35493, "name": "FM-5", "group": "intelsat", "lat": 0.015610821357259958, "lon": -0.2796915845976406, "alt_km": 35790.50659196234, "timestamp": "2025-12-22T23:36:20.367637+00:00", "meta": {"OBJECT_NAME": "FM-5", "OBJECT_ID": "2009-034A", "EPOCH": "2025-12-22T10:07:05.157408", "MEAN_MOTION": 1.00271549, "ECCENTRICITY": 0.00010976, "INCLINATION": 0.0241, "RA_OF_ASC_NODE": 288.3712, "ARG_OF_PERICENTER": 231.211, "MEAN_ANOMALY": 357.2827, "EPHEMERIS_TYPE": 0, "CLASSIFICATION_TYPE": "U", "NORAD_CAT_ID": 35493, "ELEMENT_SET_NO": 999, "REV_AT_EPOCH": 4487, "BSTAR": 0, "MEAN_MOTION_DOT": -1.79e-06, "MEAN_MOTION_DDOT": 0}, "tle": {"line1": "1 35493U 09034A   25356.42158747 -.00000179  00000+0  00000+0 0  9995", "line2": "2 35493   0.0241 288.3712 0001097 231.2110 357.2827  1.00271549 44877"}}, "geometry": {"type": "Point", "coordinates": [-0.2796915845976406, 0.015610821357259958]}}, {"type": "Feature", "properties": {"norad_id": 36097, "name": "INTELSAT 14 (IS-14)", "group": "intelsat", "lat": 0.01859614049567527, "lon": 40.88231935030282, "alt_km": 35791.569409344665, "timestamp": "2025-12-22T23:36:20.367649+00:00", "meta": {"OBJECT_NAME": "INTELSAT 14 (IS-14)", "OBJECT_ID": "2009-064A", "EPOCH": "2025-12-22T11:14:19.190688", "MEAN_MOTION": 1.00270016, "ECCENTRICITY": 0.00025243, "INCLINATION": 0.006, "RA_OF_ASC_NODE": 1.7208, "ARG_OF_PERICENTER": 281.7349, "MEAN_ANOMALY": 291.3984, "EPHEMERIS_TYPE": 0, "CLASSIFICATION_TYPE": "U", "NORAD_CAT_ID": 36097, "ELEMENT_SET_NO": 999, "REV_AT_EPOCH": 5883, "BSTAR": 0, "MEAN_MOTION_DOT": -2.52e-06, "MEAN_MOTION_DDOT": 0}, "tle": {"line1": "1 36097U 09064A   25356.46827767 -.00000252  00000+0  00000+0 0  9990", "line2": "2 36097   0.0060   1.7208 0002524 281.7349 291.3984  1.00270016 58835"}}, "geometry": {"type": "Point", "coordinates": [40.88231935030282, 0.01859614049567527]}}, {"type": "Feature", "properties": {"norad_id": 36106, "name": "INTELSAT 15 (IS-15)", "group": "intelsat", "lat": 0.009830322668644715, "lon": 170.9963946323243, "alt_km": 35789.72476734064, "timestamp": "2025-12-22T23:36:20.367661+00:00", "meta": {"OBJECT_NAME": "INTELSAT 15 (IS-15)", "OBJECT_ID": "2009-067A", "EPOCH": "2025-12-22T11:51:31.929120", "MEAN_MOTION": 1.00271405, "ECCENTRICITY": 0.00021977, "INCLINATION": 0.0184, "RA_OF_ASC_NODE": 2.3066, "ARG_OF_PERICENTER": 280.931, "MEAN_ANOMALY": 71.1056, "EPHEMERIS_TYPE": 0, "CLASSIFICATION_TYPE": "U", "NORAD_CAT_ID": 36106, "ELEMENT_SET_NO": 999, "REV_AT_EPOCH": 3945, "BSTAR": 0, "MEAN_MOTION_DOT": -1.64e-06, "MEAN_MOTION_DDOT": 0}, "tle": {"line1": "1 36106U 09067A   25356.49411955 -.00000164  00000+0  00000+0 0  9997", "line2": "2 36106   0.0184   2.3066 0002197 280.9310  71.1056  1.00271405 39451"}}, "geometry": {"type": "Point", "coordinates": [170.9963946323243, 0.009830322668644715]}}, {"type": "Feature", "properties": {"norad_id": 36131, "name": "DIRECTV 12", "group": "intelsat", "lat": -0.011869837746723429, "lon": -16.84236876044254, "alt_km": 35783.17317575574, "timestamp": "2025-12-22T23:36:20.367673+00:00", "meta": {"OBJECT_NAME": "DIRECTV 12", "OBJECT_ID": "2009-075A", "EPOCH": "2025-12-22T10:57:50.767776", "MEAN_MOTION": 1.00275076, "ECCENTRICITY": 5.277e-05, "INCLINATION": 0.0127, "RA_OF_ASC_NODE": 95.6237, "ARG_OF_PERICENTER": 221.682, "MEAN_ANOMALY": 195.7074, "EPHEMERIS_TYPE": 0, "CLASSIFICATION_TYPE": "U", "NORAD_CAT_ID": 36131, "ELEMENT_SET_NO": 999, "REV_AT_EPOCH": 4478, "BSTAR": 0, "MEAN_MOTION_DOT": -8.2e-07, "MEAN_MOTION_DDOT": 0}, "tle": {"line1": "1 36131U 09075A   25356.45683759 -.00000082  00000+0  00000+0 0  9992", "line2": "2 36131   0.0127  95.6237 0000527 221.6820 195.7074  1.00275076 44787"}}, "geometry": {"type": "Point", "coordinates": [-16.84236876044254, -0.011869837746723429]}}, {"type": "Feature", "properties": {"norad_id": 36397, "name": "INTELSAT 16 (IS-16)", "group": "intelsat", "lat": 0.015012152819900253, "lon": 9.684187383292153, "alt_km": 35787.53721401403, "timestamp": "2025-12-22T23:36:20.367685+00:00", "meta": {"OBJECT_NAME": "INTELSAT 16 (IS-16)", "OBJECT_ID": "2010-006A", "EPOCH": "2025-12-22T09:22:57.109728", "MEAN_MOTION": 1.00270699, "ECCENTRICITY": 0.00018421, "INCLINATION": 0.0149, "RA_OF_ASC_NODE": 318.3593, "ARG_OF_PERICENTER": 313.1996, "MEAN_ANOMALY": 244.1827, "EPHEMERIS_TYPE": 0, "CLASSIFICATION_TYPE": "U", "NORAD_CAT_ID": 36397, "ELEMENT_SET_NO": 999, "REV_AT_EPOCH": 5788, "BSTAR": 0, "MEAN_MOTION_DOT": -2.23e-06, "MEAN_MOTION_DDOT": 0}, "tle": {"line1": "1 36397U 10006A   25356.39093877 -.00000223  00000+0  00000+0 0  9998", "line2": "2 36397   0.0149 318.3593 0001842 313.1996 244.1827  1.00270699 57883"}}, "geometry": {"type": "Point", "coordinates": [9.684187383292153, 0.015012152819900253]}}, {"type": "Feature", "properties": {"norad_id": 37185, "name": "XM-5", "group": "intelsat", "lat": 0.03906146537510617, "lon": -29.32854371485602, "alt_km": 35795.17078637472, "timestamp": "2025-12-22T23:36:20.367697+00:00", "meta": {"OBJECT_NAME": "XM-5", "OBJECT_ID": "2010-053A", "EPOCH": "2025-12-22T10:47:31.225344", "MEAN_MOTION": 1.00272, "ECCENTRICITY": 0.00021803, "INCLINATION": 0.0677, "RA_OF_ASC_NODE": 270.2646, "ARG_OF_PERICENTER": 239.2198, "MEAN_ANOMALY": 348.4632, "EPHEMERIS_TYPE": 0, "CLASSIFICATION_TYPE": "U", "NORAD_CAT_ID": 37185, "ELEMENT_SET_NO": 999, "REV_AT_EPOCH": 5571, "BSTAR": 0, "MEAN_MOTION_DOT": -1e-08, "MEAN_MOTION_DDOT": 0}, "tle": {"line1": "1 37185U 10053A   25356.44966696 -.00000001  00000+0  00000+0 0  9994", "line2": "2 37185   0.0677 270.2646 0002180 239.2198 348.4632  1.00272000 55718"}}, "geometry": {"type": "Point", "coordinates": [-29.32854371485602, 0.03906146537510617]}}, {"type": "Feature", "properties": {"norad_id": 37238, "name": "INTELSAT 17 (IS-17)", "group": "intelsat", "lat": 0.0023902502692518214, "lon": 151.82174984052799, "alt_km": 35792.922847292124, "timestamp": "2025-12-22T23:36:20.367709+00:00", "meta": {"OBJECT_NAME": "INTELSAT 17 (IS-17)", "OBJECT_ID": "2010-065B", "EPOCH": "2025-12-22T13:28:45.118848", "MEAN_MOTION": 1.00271519, "ECCENTRICITY": 0.00026093, "INCLINATION": 0.009, "RA_OF_ASC_NODE": 296.0844, "ARG_OF_PERICENTER": 343.6622, "MEAN_ANOMALY": 79.7934, "EPHEMERIS_TYPE": 0, "CLASSIFICATION_TYPE": "U", "NORAD_CAT_ID": 37238, "ELEMENT_SET_NO": 999, "REV_AT_EPOCH": 5147, "BSTAR": 0, "MEAN_MOTION_DOT": 2e-07, "MEAN_MOTION_DDOT": 0}, "tle": {"line1": "1 37238U 10065B   25356.56163332  .00000020  00000+0  00000+0 0  9995", "line2": "2 37238   0.0090 296.0844 0002609 343.6622  79.7934  1.00271519 51472"}}, "geometry": {"type": "Point", "coordinates": [151.82174984052799, 0.0023902502692518214]}}, {"type": "Feature", "properties": {"norad_id": 37392, "name": "INTELSAT 28 (IS-28)", "group": "intelsat", "lat": -0.6730460608456413, "lon": 54.17962563585309, "alt_km": 35798.942489003195, "timestamp": "2025-12-22T23:36:20.367721+00:00", "meta": {"OBJECT_NAME": "INTELSAT 28 (IS-28)", "OBJECT_ID": "2011-016A", "EPOCH": "2025-12-22T11:18:11.320704", "MEAN_MOTION": 1.00269174, "ECCENTRICITY": 0.00037354, "INCLINATION": 1.3482, "RA_OF_ASC_NODE": 84.951, "ARG_OF_PERICENTER": 189.9197, "MEAN_ANOMALY": 314.2415, "EPHEMERIS_TYPE": 0, "CLASSIFICATION_TYPE": "U", "NORAD_CAT_ID": 37392, "ELEMENT_SET_NO": 999, "REV_AT_EPOCH": 5151, "BSTAR": 0, "MEAN_MOTION_DOT": -2.04e-06, "MEAN_MOTION_DDOT": 0}, "tle": {"line1": "1 37392U 11016A   25356.47096436 -.00000204  00000+0  00000+0 0  9998", "line2": "2 37392   1.3482  84.9510 0003735 189.9197 314.2415  1.00269174 51515"}}, "geometry": {"type": "Point", "coordinates": [54.17962563585309, -0.6730460608456413]}}]}